start=new Date('2022-02-25T00:00:00.000Z').valueOf();
sats=[{"CLASSIFICATION_TYPE":"U","CENTER_NAME":"EARTH","BSTAR":"-0.00003968100000","FILE":"3320325","PERIAPSIS":"546.241","SITE":"AFETR","PERIOD":"95.592","SEMIMAJOR_AXIS":"6925.364","DECAY_DATE":null,"OBJECT_NAME":"STARLINK-1131","OBJECT_TYPE":"PAYLOAD","APOAPSIS":"548.217","COUNTRY_CODE":"US","MEAN_ANOMALY":"292.0506","RA_OF_ASC_NODE":"63.4060","ECCENTRICITY":"0.00014270","MEAN_ELEMENT_THEORY":"SGP4","LAUNCH_DATE":"2020-01-29","ELEMENT_SET_NO":"999","NORAD_CAT_ID":"45047","INCLINATION":"53.0548","GP_ID":"196899157","EPHEMERIS_TYPE":"0","TLE_LINE1":"1 45047U 20006D   22055.74758185 -.00000872  00000-0 -39681-4 0  9997","MEAN_MOTION":"15.06394946","RCS_SIZE":"LARGE","EPOCH":"2022-02-24T17:56:31.071840","MEAN_MOTION_DOT":"-0.00000872","TLE_LINE2":"2 45047  53.0548  63.4060 0001427  68.0634 292.0506 15.06394946114307","REF_FRAME":"TEME","MEAN_MOTION_DDOT":"0.0000000000000","OBJECT_ID":"2020-006D","ARG_OF_PERICENTER":"68.0634","TIME_SYSTEM":"UTC","REV_AT_EPOCH":"11430"},{"PERIAPSIS":"546.069","FILE":"3320325","SITE":"AFETR","PERIOD":"95.593","CENTER_NAME":"EARTH","CLASSIFICATION_TYPE":"U","BSTAR":"0.00016507000000","APOAPSIS":"548.428","OBJECT_TYPE":"PAYLOAD","COUNTRY_CODE":"US","SEMIMAJOR_AXIS":"6925.384","DECAY_DATE":null,"OBJECT_NAME":"STARLINK-1134","MEAN_ELEMENT_THEORY":"SGP4","LAUNCH_DATE":"2020-01-29","NORAD_CAT_ID":"45048","INCLINATION":"53.0544","ELEMENT_SET_NO":"999","MEAN_ANOMALY":"288.3262","RA_OF_ASC_NODE":"63.3623","ECCENTRICITY":"0.00017030","MEAN_MOTION_DOT":"0.00002177","EPOCH":"2022-02-24T18:07:08.924160","TLE_LINE2":"2 45048  53.0544  63.3623 0001703  71.7912 288.3262 15.06388575114303","MEAN_MOTION_DDOT":"0.0000000000000","REF_FRAME":"TEME","OBJECT_ID":"2020-006E","ARG_OF_PERICENTER":"71.7912","REV_AT_EPOCH":"11430","TIME_SYSTEM":"UTC","GP_ID":"196898908","MEAN_MOTION":"15.06388575","TLE_LINE1":"1 45048U 20006E   22055.75496440  .00002177  00000-0  16507-3 0  9991","RCS_SIZE":"LARGE","EPHEMERIS_TYPE":"0"},{"MEAN_ANOMALY":"302.0263","ECCENTRICITY":"0.00020810","RA_OF_ASC_NODE":"63.3415","MEAN_ELEMENT_THEORY":"SGP4","ELEMENT_SET_NO":"999","INCLINATION":"53.0544","NORAD_CAT_ID":"45049","LAUNCH_DATE":"2020-01-29","EPHEMERIS_TYPE":"0","MEAN_MOTION":"15.06809871","TLE_LINE1":"1 45049U 20006F   22055.75567056  .00007615  00000-0  52383-3 0  9998","RCS_SIZE":"LARGE","GP_ID":"196900159","EPOCH":"2022-02-24T18:08:09.936384","MEAN_MOTION_DOT":"0.00007615","TIME_SYSTEM":"UTC","REV_AT_EPOCH":"11430","TLE_LINE2":"2 45049  53.0544  63.3415 0002081  58.0929 302.0263 15.06809871114301","MEAN_MOTION_DDOT":"0.0000000000000","REF_FRAME":"TEME","ARG_OF_PERICENTER":"58.0929","OBJECT_ID":"2020-006F","CENTER_NAME":"EARTH","CLASSIFICATION_TYPE":"U","BSTAR":"0.00052383000000","PERIAPSIS":"544.517","FILE":"3320325","PERIOD":"95.566","SITE":"AFETR","DECAY_DATE":null,"SEMIMAJOR_AXIS":"6924.093","OBJECT_NAME":"STARLINK-1135","OBJECT_TYPE":"PAYLOAD","APOAPSIS":"547.399","COUNTRY_CODE":"US"},{"SEMIMAJOR_AXIS":"6925.274","DECAY_DATE":null,"OBJECT_NAME":"STARLINK-1140","OBJECT_TYPE":"PAYLOAD","APOAPSIS":"548.133","COUNTRY_CODE":"US","CENTER_NAME":"EARTH","CLASSIFICATION_TYPE":"U","BSTAR":"0.00052978000000","FILE":"3318573","PERIAPSIS":"546.145","SITE":"AFETR","PERIOD":"95.591","GP_ID":"196838222","EPHEMERIS_TYPE":"0","TLE_LINE1":"1 45050U 20006G   22055.50060758  .00007623  00000-0  52978-3 0  9999","RCS_SIZE":"LARGE","MEAN_MOTION":"15.06424247","EPOCH":"2022-02-24T12:00:52.494912","MEAN_MOTION_DOT":"0.00007623","TLE_LINE2":"2 45050  53.0533  64.5077 0001435  60.7209 299.3924 15.06424247114268","MEAN_MOTION_DDOT":"0.0000000000000","ARG_OF_PERICENTER":"60.7209","REF_FRAME":"TEME","OBJECT_ID":"2020-006G","TIME_SYSTEM":"UTC","REV_AT_EPOCH":"11426","MEAN_ANOMALY":"299.3924","RA_OF_ASC_NODE":"64.5077","ECCENTRICITY":"0.00014350","MEAN_ELEMENT_THEORY":"SGP4","LAUNCH_DATE":"2020-01-29","ELEMENT_SET_NO":"999","INCLINATION":"53.0533","NORAD_CAT_ID":"45050"},{"PERIOD":"95.461","SITE":"AFETR","FILE":"3320325","PERIAPSIS":"539.663","BSTAR":"0.00068880000000","CLASSIFICATION_TYPE":"U","CENTER_NAME":"EARTH","COUNTRY_CODE":"US","APOAPSIS":"542.079","OBJECT_TYPE":"PAYLOAD","OBJECT_NAME":"STARLINK-1141","DECAY_DATE":null,"SEMIMAJOR_AXIS":"6919.006","NORAD_CAT_ID":"45051","INCLINATION":"53.0522","ELEMENT_SET_NO":"999","LAUNCH_DATE":"2020-01-29","MEAN_ELEMENT_THEORY":"SGP4","ECCENTRICITY":"0.00017460","RA_OF_ASC_NODE":"62.5324","MEAN_ANOMALY":"282.4952","REV_AT_EPOCH":"11431","TIME_SYSTEM":"UTC","TLE_LINE2":"2 45051  53.0522  62.5324 0001746  77.6233 282.4952 15.08471750114312","OBJECT_ID":"2020-006H","MEAN_MOTION_DDOT":"0.0000000000000","REF_FRAME":"TEME","ARG_OF_PERICENTER":"77.6233","MEAN_MOTION_DOT":"0.00010583","EPOCH":"2022-02-24T17:56:15.205344","TLE_LINE1":"1 45051U 20006H   22055.74739821  .00010583  00000-0  68880-3 0  9998","MEAN_MOTION":"15.08471750","RCS_SIZE":"LARGE","EPHEMERIS_TYPE":"0","GP_ID":"196898658"},{"RA_OF_ASC_NODE":"63.5826","ECCENTRICITY":"0.00014580","MEAN_ANOMALY":"295.9147","LAUNCH_DATE":"2020-01-29","ELEMENT_SET_NO":"999","INCLINATION":"53.0534","NORAD_CAT_ID":"45052","MEAN_ELEMENT_THEORY":"SGP4","GP_ID":"196899408","EPHEMERIS_TYPE":"0","MEAN_MOTION":"15.06399596","TLE_LINE1":"1 45052U 20006J   22055.70702616 -.00000412  00000-0 -87885-5 0  9997","RCS_SIZE":"LARGE","TLE_LINE2":"2 45052  53.0534  63.5826 0001458  64.1992 295.9147 15.06399596114294","ARG_OF_PERICENTER":"64.1992","MEAN_MOTION_DDOT":"0.0000000000000","OBJECT_ID":"2020-006J","REF_FRAME":"TEME","TIME_SYSTEM":"UTC","REV_AT_EPOCH":"11429","EPOCH":"2022-02-24T16:58:07.060224","MEAN_MOTION_DOT":"-0.00000412","BSTAR":"-0.00000878850000","CLASSIFICATION_TYPE":"U","CENTER_NAME":"EARTH","SITE":"AFETR","PERIOD":"95.592","PERIAPSIS":"546.205","FILE":"3320325","OBJECT_NAME":"STARLINK-1148","SEMIMAJOR_AXIS":"6925.350","DECAY_DATE":null,"COUNTRY_CODE":"US","OBJECT_TYPE":"PAYLOAD","APOAPSIS":"548.225"},{"INCLINATION":"53.0009","NORAD_CAT_ID":"45053","ELEMENT_SET_NO":"999","LAUNCH_DATE":"2020-01-29","MEAN_ELEMENT_THEORY":"SGP4","ECCENTRICITY":"0.00008410","RA_OF_ASC_NODE":"59.7251","MEAN_ANOMALY":"234.4144","REV_AT_EPOCH":"11432","TIME_SYSTEM":"UTC","MEAN_MOTION_DDOT":"0.0000000000000","TLE_LINE2":"2 45053  53.0009  59.7251 0000841 125.6923 234.4144 15.09177285114324","ARG_OF_PERICENTER":"125.6923","REF_FRAME":"TEME","OBJECT_ID":"2020-006K","MEAN_MOTION_DOT":"0.00007358","EPOCH":"2022-02-24T17:21:30.084768","MEAN_MOTION":"15.09177285","TLE_LINE1":"1 45053U 20006K   22055.72326487  .00007358  00000-0  47549-3 0  9993","RCS_SIZE":"LARGE","EPHEMERIS_TYPE":"0","GP_ID":"196899660","PERIOD":"95.416","SITE":"AFETR","FILE":"3320325","PERIAPSIS":"538.133","BSTAR":"0.00047549000000","CLASSIFICATION_TYPE":"U","CENTER_NAME":"EARTH","COUNTRY_CODE":"US","APOAPSIS":"539.296","OBJECT_TYPE":"PAYLOAD","OBJECT_NAME":"STARLINK-1155","DECAY_DATE":null,"SEMIMAJOR_AXIS":"6916.850"},{"PERIOD":"95.592","SITE":"AFETR","FILE":"3318573","PERIAPSIS":"545.968","BSTAR":"-0.00001901000000","CENTER_NAME":"EARTH","CLASSIFICATION_TYPE":"U","COUNTRY_CODE":"US","APOAPSIS":"548.447","OBJECT_TYPE":"PAYLOAD","OBJECT_NAME":"STARLINK-1156","DECAY_DATE":null,"SEMIMAJOR_AXIS":"6925.343","NORAD_CAT_ID":"45054","INCLINATION":"53.0537","ELEMENT_SET_NO":"999","LAUNCH_DATE":"2020-01-29","MEAN_ELEMENT_THEORY":"SGP4","ECCENTRICITY":"0.00017900","RA_OF_ASC_NODE":"65.1056","MEAN_ANOMALY":"308.1296","REV_AT_EPOCH":"11424","TIME_SYSTEM":"UTC","TLE_LINE2":"2 45054  53.0537  65.1056 0001790  51.9854 308.1296 15.06401869114246","MEAN_MOTION_DDOT":"0.0000000000000","REF_FRAME":"TEME","ARG_OF_PERICENTER":"51.9854","OBJECT_ID":"2020-006L","MEAN_MOTION_DOT":"-0.00000565","EPOCH":"2022-02-24T08:55:07.183488","TLE_LINE1":"1 45054U 20006L   22055.37161092 -.00000565  00000-0 -19010-4 0  9992","MEAN_MOTION":"15.06401869","RCS_SIZE":"LARGE","EPHEMERIS_TYPE":"0","GP_ID":"196838723"},{"BSTAR":"0.00017476000000","CENTER_NAME":"EARTH","CLASSIFICATION_TYPE":"U","PERIOD":"95.592","SITE":"AFETR","PERIAPSIS":"546.194","FILE":"3320325","OBJECT_NAME":"STARLINK-1159","DECAY_DATE":null,"SEMIMAJOR_AXIS":"6925.329","COUNTRY_CODE":"US","OBJECT_TYPE":"PAYLOAD","APOAPSIS":"548.194","ECCENTRICITY":"0.00014440","RA_OF_ASC_NODE":"63.5219","MEAN_ANOMALY":"291.4983","ELEMENT_SET_NO":"999","INCLINATION":"53.0535","NORAD_CAT_ID":"45057","LAUNCH_DATE":"2020-01-29","MEAN_ELEMENT_THEORY":"SGP4","EPHEMERIS_TYPE":"0","MEAN_MOTION":"15.06406444","TLE_LINE1":"1 45057U 20006P   22055.71808194  .00002323  00000-0  17476-3 0  9999","RCS_SIZE":"LARGE","GP_ID":"196899158","TIME_SYSTEM":"UTC","REV_AT_EPOCH":"11430","OBJECT_ID":"2020-006P","TLE_LINE2":"2 45057  53.0535  63.5219 0001444  68.6160 291.4983 15.06406444114309","MEAN_MOTION_DDOT":"0.0000000000000","ARG_OF_PERICENTER":"68.6160","REF_FRAME":"TEME","EPOCH":"2022-02-24T17:14:02.279616","MEAN_MOTION_DOT":"0.00002323"},{"DECAY_DATE":null,"SEMIMAJOR_AXIS":"6925.350","OBJECT_NAME":"STARLINK-1162","APOAPSIS":"548.277","OBJECT_TYPE":"PAYLOAD","COUNTRY_CODE":"US","CLASSIFICATION_TYPE":"U","CENTER_NAME":"EARTH","BSTAR":"0.00007816800000","FILE":"3320325","PERIAPSIS":"546.152","PERIOD":"95.592","SITE":"AFETR","MEAN_MOTION":"15.06399650","TLE_LINE1":"1 45058U 20006Q   22055.71071990  .00000883  00000-0  78168-4 0  9991","RCS_SIZE":"LARGE","EPHEMERIS_TYPE":"0","GP_ID":"196898909","MEAN_MOTION_DOT":"0.00000883","EPOCH":"2022-02-24T17:03:26.199360","REV_AT_EPOCH":"11430","TIME_SYSTEM":"UTC","MEAN_MOTION_DDOT":"0.0000000000000","TLE_LINE2":"2 45058  53.0528  63.5671 0001534  63.9425 296.1722 15.06399650114309","REF_FRAME":"TEME","OBJECT_ID":"2020-006Q","ARG_OF_PERICENTER":"63.9425","MEAN_ANOMALY":"296.1722","ECCENTRICITY":"0.00015340","RA_OF_ASC_NODE":"63.5671","MEAN_ELEMENT_THEORY":"SGP4","INCLINATION":"53.0528","NORAD_CAT_ID":"45058","ELEMENT_SET_NO":"999","LAUNCH_DATE":"2020-01-29"}];
